NORAD_CAT_ID,OBJECT_NAME,OBJECT_TYPE,EPOCH,MEAN_MOTION,ECCENTRICITY,INCLINATION,RA_OF_ASC_NODE,ARG_OF_PERICENTER,MEAN_ANOMALY,BSTAR,MEAN_MOTION_DOT,MEAN_MOTION_DDOT,TLE_LINE0,TLE_LINE1,TLE_LINE2,SEMIMAJOR_AXIS,PERIOD,APOGEE,PERIGEE,DECAYED
49433.0,STARLINK-3079,PAYLOAD,2023-05-15 07:52:48,15.08839175,0.0001091,53.2155,150.0992,90.8719,269.2398,4.6228e-05,4.48e-06,0.0,0 STARLINK-3079,1 49433U 21104AB  23135.32833417  .00000448  00000-0  46228-4 0  9998,2 49433  53.2155 150.0992 0001091  90.8719 269.2398 15.08839175 84601,6917.883,95.438,540.503,538.993,0.0
49433.0,STARLINK-3079,PAYLOAD,2023-05-15 17:25:07,15.08837571,0.0001133,53.2156,148.3156,92.3307,267.7815,4.7057e-05,4.61e-06,0.0,0 STARLINK-3079,1 49433U 21104AB  23135.72577553  .00000461  00000-0  47057-4 0  9994,2 49433  53.2156 148.3156 0001133  92.3307 267.7815 15.08837571 84662,6917.888,95.438,540.537,538.969,0.0
49433.0,STARLINK-3079,PAYLOAD,2023-05-16 06:08:12,15.08838441,0.0001115,53.2157,145.9363,91.0554,269.0566,8.1013e-05,1.002e-05,0.0,0 STARLINK-3079,1 49433U 21104AB  23136.25569506  .00001002  00000-0  81013-4 0  9994,2 49433  53.2157 145.9363 0001115  91.0554 269.0566 15.08838441 84740,6917.885,95.438,540.521,538.979,0.0
49433.0,STARLINK-3079,PAYLOAD,2023-05-16 17:15:54,15.08838072,0.0001113,53.2157,143.8546,89.3101,270.8019,6.6753e-05,7.75e-06,0.0,0 STARLINK-3079,1 49433U 21104AB  23136.71937599  .00000775  00000-0  66753-4 0  9996,2 49433  53.2157 143.8546 0001113  89.3101 270.8019 15.08838072 84817,6917.886,95.438,540.521,538.981,0.0
49433.0,STARLINK-3079,PAYLOAD,2023-05-17 17:06:41,15.08837864,0.0001128,53.2159,139.3945,89.9518,270.1604,4.1614e-05,3.75e-06,0.0,0 STARLINK-3079,1 49433U 21104AB  23137.71297785  .00000375  00000-0  41614-4 0  9998,2 49433  53.2159 139.3945 0001128  89.9518 270.1604 15.08837864 84963,6917.887,95.438,540.532,538.972,0.0
49433.0,STARLINK-3079,PAYLOAD,2023-05-18 01:03:36,15.0883994,0.0001128,53.2159,137.9076,92.6804,267.4318,4.4306e-05,4.17e-06,0.0,0 STARLINK-3079,1 49433U 21104AB  23138.04417646  .00000417  00000-0  44306-4 0  9993,2 49433  53.2159 137.9076 0001128  92.6804 267.4318 15.08839940 85016,6917.881,95.438,540.526,538.965,0.0
49433.0,STARLINK-3079,PAYLOAD,2023-05-18 09:00:32,15.08840064,0.0001109,53.2158,136.4199,88.0104,272.1016,3.5278e-05,2.74e-06,0.0,0 STARLINK-3079,1 49433U 21104AB  23138.37537637  .00000274  00000-0  35278-4 0  9991,2 49433  53.2158 136.4199 0001109  88.0104 272.1016 15.08840064 85068,6917.88,95.438,540.512,538.978,0.0
49433.0,STARLINK-3079,PAYLOAD,2023-05-18 16:57:28,15.08837128,0.0001118,53.216,134.9327,85.4392,274.6728,1.4608e-05,-5.5e-07,0.0,0 STARLINK-3079,1 49433U 21104AB  23138.70657914 -.00000055  00000-0  14608-4 0  9991,2 49433  53.2160 134.9327 0001118  85.4392 274.6728 15.08837128 85117,6917.889,95.438,540.528,538.981,0.0
49433.0,STARLINK-3079,PAYLOAD,2023-05-19 08:51:19,15.08836078,0.0001085,53.2163,131.9589,85.5017,274.6099,1.9005e-05,1.5e-07,0.0,0 STARLINK-3079,1 49433U 21104AB  23139.36898122  .00000015  00000-0  19005-4 0  9993,2 49433  53.2163 131.9589 0001085  85.5017 274.6099 15.08836078 85210,6917.892,95.438,540.508,539.007,0.0
49433.0,STARLINK-3079,PAYLOAD,2023-05-19 16:48:15,15.0883899,0.0001081,53.2164,130.4725,84.7957,275.3159,4.566e-05,4.39e-06,0.0,0 STARLINK-3079,1 49433U 21104AB  23139.70017902  .00000439  00000-0  45660-4 0  9996,2 49433  53.2164 130.4725 0001081  84.7957 275.3159 15.08838990 85262,6917.883,95.438,540.496,539.001,0.0
49433.0,STARLINK-3079,PAYLOAD,2023-05-20 03:55:57,15.0884293,0.0001085,53.2167,128.3909,84.9687,275.1429,6.7958e-05,7.94e-06,0.0,0 STARLINK-3079,1 49433U 21104AB  23140.16385640  .00000794  00000-0  67958-4 0  9993,2 49433  53.2167 128.3909 0001085  84.9687 275.1429 15.08842930 85336,6917.871,95.437,540.487,538.986,0.0
49433.0,STARLINK-3079,PAYLOAD,2023-05-20 16:39:01,15.08846258,0.0001103,53.2168,126.0123,83.5621,276.5497,0.00010568,1.395e-05,0.0,0 STARLINK-3079,1 49433U 21104AB  23140.69377214  .00001395  00000-0  10568-3 0  9991,2 49433  53.2168 126.0123 0001103  83.5621 276.5497 15.08846258 85410,6917.861,95.437,540.489,538.963,0.0
49433.0,STARLINK-3079,PAYLOAD,2023-05-21 05:22:06,15.08849357,0.0001087,53.217,123.6332,85.3068,274.8048,0.0001493,2.09e-05,0.0,0 STARLINK-3079,1 49433U 21104AB  23141.22368747  .00002090  00000-0  14930-3 0  9992,2 49433  53.2170 123.6332 0001087  85.3068 274.8048 15.08849357 85498,6917.852,95.437,540.469,538.965,0.0
49433.0,STARLINK-3079,PAYLOAD,2023-05-22 08:23:41,15.08834398,0.0001105,53.2168,118.5776,90.0453,270.0666,-4.4043e-05,-9.89e-06,0.0,0 STARLINK-3079,1 49433U 21104AB  23142.34978372 -.00000989  00000-0 -44043-4 0  9993,2 49433  53.2168 118.5776 0001105  90.0453 270.0666 15.08834398 85664,6917.898,95.438,540.527,538.998,0.0
49433.0,STARLINK-3079,PAYLOAD,2023-05-22 22:42:09,15.08837812,0.0001115,53.2164,115.9042,71.5083,288.603,-1.6262e-05,-5.47e-06,0.0,0 STARLINK-3079,1 49433U 21104AB  23142.94594197 -.00000547  00000-0 -16262-4 0  9990,2 49433  53.2164 115.9042 0001115  71.5083 288.6030 15.08837812 85755,6917.887,95.438,540.523,538.981,0.0
49433.0,STARLINK-3079,PAYLOAD,2023-05-23 05:03:41,15.08844711,0.000112,53.2173,114.7134,67.5692,292.5419,1.6708e-06,-2.61e-06,0.0,0 STARLINK-3079,1 49433U 21104AB  23143.21089741 -.00000261  00000-0  16708-5 0  9993,2 49433  53.2173 114.7134 0001120  67.5692 292.5419 15.08844711 85796,6917.866,95.437,540.506,538.956,0.0
49433.0,STARLINK-3079,PAYLOAD,2023-05-23 20:57:33,15.08832728,0.0001169,53.2174,111.7405,99.5501,260.5623,9.7619e-05,1.266e-05,0.0,0 STARLINK-3079,1 49433U 21104AB  23143.87330299  .00001266  00000-0  97619-4 0  9996,2 49433  53.2174 111.7405 0001169  99.5501 260.5623 15.08832728 85890,6917.903,95.438,540.576,538.959,0.0
49433.0,STARLINK-3079,PAYLOAD,2023-05-24 04:54:29,15.08833696,0.0001144,53.2173,110.2534,98.2224,261.8898,9.8944e-05,1.287e-05,0.0,0 STARLINK-3079,1 49433U 21104AB  23144.20450456  .00001287  00000-0  98944-4 0  9997,2 49433  53.2173 110.2534 0001144  98.2224 261.8898 15.08833696 85946,6917.9,95.438,540.556,538.973,0.0
49433.0,STARLINK-3079,PAYLOAD,2023-05-26 04:36:03,15.08839296,0.000115,53.2174,101.3325,92.2016,267.9108,7.7488e-05,9.46e-06,0.0,0 STARLINK-3079,1 49433U 21104AB  23146.19170524  .00000946  00000-0  77488-4 0  9993,2 49433  53.2174 101.3325 0001150  92.2016 267.9108 15.08839296 86243,6917.883,95.438,540.543,538.952,0.0
49433.0,STARLINK-3079,PAYLOAD,2023-05-26 20:29:55,15.08836606,0.0001379,53.2176,98.3602,76.1151,283.9995,1.7214e-05,-1.4e-07,0.0,0 STARLINK-3079,1 49433U 21104AB  23146.85411109 -.00000014  00000-0  17214-4 0  9991,2 49433  53.2176  98.3602 0001379  76.1151 283.9995 15.08836606 86347,6917.891,95.438,540.71,538.802,0.0
49433.0,STARLINK-3079,PAYLOAD,2023-05-27 04:26:50,15.08836776,0.0001272,53.2177,96.8718,87.2823,272.8314,9.3307e-06,-1.39e-06,0.0,0 STARLINK-3079,1 49433U 21104AB  23147.18531124 -.00000139  00000-0  93307-5 0  9994,2 49433  53.2177  96.8718 0001272  87.2823 272.8314 15.08836776 86395,6917.89,95.438,540.635,538.875,0.0
49433.0,STARLINK-3079,PAYLOAD,2023-05-27 20:20:41,15.0884093,0.000125,53.2176,93.8974,88.2452,271.8683,7.4199e-05,8.93e-06,0.0,0 STARLINK-3079,1 49433U 21104AB  23147.84770675  .00000893  00000-0  74199-4 0  9996,2 49433  53.2176  93.8974 0001250  88.2452 271.8683 15.08840930 86496,6917.878,95.437,540.607,538.878,0.0
49433.0,STARLINK-3079,PAYLOAD,2023-05-28 02:42:13,15.088465,0.0001249,53.2173,92.7083,88.6037,271.5099,0.00011466,1.538e-05,0.0,0 STARLINK-3079,1 49433U 21104AB  23148.11266144  .00001538  00000-0  11466-3 0  9992,2 49433  53.2173  92.7083 0001249  88.6037 271.5099 15.08846500 86535,6917.861,95.437,540.59,538.861,0.0
49433.0,STARLINK-3079,PAYLOAD,2023-05-28 20:11:28,15.08842106,0.0001214,53.2175,89.4374,87.7504,272.3627,8.8737e-05,1.125e-05,0.0,0 STARLINK-3079,1 49433U 21104AB  23148.84130437  .00001125  00000-0  88737-4 0  9995,2 49433  53.2175  89.4374 0001214  87.7504 272.3627 15.08842106 86640,6917.874,95.437,540.579,538.899,0.0
49433.0,STARLINK-3079,PAYLOAD,2023-05-29 05:43:47,15.0884582,0.000122,53.2177,87.6525,93.9842,266.129,9.9098e-05,1.29e-05,0.0,0 STARLINK-3079,1 49433U 21104AB  23149.23874040  .00001290  00000-0  99098-4 0  9999,2 49433  53.2177  87.6525 0001220  93.9842 266.1290 15.08845820 86701,6917.863,95.437,540.572,538.884,0.0
49433.0,STARLINK-3079,PAYLOAD,2023-05-30 02:23:49,15.08834941,0.0001148,53.2174,83.7872,87.5174,272.595,-6.5868e-05,-1.336e-05,0.0,0 STARLINK-3079,1 49433U 21104AB  23150.09987408 -.00001336  00000-0 -65868-4 0  9999,2 49433  53.2174  83.7872 0001148  87.5174 272.5950 15.08834941 86836,6917.896,95.438,540.555,538.967,0.0
49433.0,STARLINK-3079,PAYLOAD,2023-05-31 02:14:35,15.08848353,0.0001165,53.2181,79.3271,88.9357,271.1769,8.21e-05,1.019e-05,0.0,0 STARLINK-3079,1 49433U 21104AB  23151.09346198  .00001019  00000-0  82100-4 0  9999,2 49433  53.2181  79.3271 0001165  88.9357 271.1769 15.08848353 86986,6917.855,95.437,540.526,538.914,0.0
49433.0,STARLINK-3079,PAYLOAD,2023-05-31 21:19:13,15.0883306,0.0001157,53.2173,75.7596,95.2776,264.8348,7.812e-05,9.55e-06,0.0,0 STARLINK-3079,1 49433U 21104AB  23151.88835405  .00000955  00000-0  78120-4 0  9995,2 49433  53.2173  75.7596 0001157  95.2776 264.8348 15.08833060 87100,6917.902,95.438,540.567,538.966,0.0
49433.0,STARLINK-3079,PAYLOAD,2023-06-01 02:05:22,15.08837782,0.0001116,53.2175,74.8677,95.6315,264.4805,0.00012153,1.647e-05,0.0,0 STARLINK-3079,1 49433U 21104AB  23152.08706909  .00001647  00000-0  12153-3 0  9996,2 49433  53.2175  74.8677 0001116  95.6315 264.4805 15.08837782 87132,6917.887,95.438,540.524,538.98,0.0
49433.0,STARLINK-3079,PAYLOAD,2023-06-02 03:31:32,15.08856826,0.0001062,53.2174,70.1107,97.6069,262.5044,-0.00016433,-2.903e-05,0.0,0 STARLINK-3079,1 49433U 21104AB  23153.14690851 -.00002903  00000-0 -16433-3 0  9995,2 49433  53.2174  70.1107 0001062  97.6069 262.5044 15.08856826 87297,6917.829,95.436,540.429,538.959,0.0
